YAOGAN-43 01G           
1 60464U 24148G   26068.44348481  .00010133  00000+0  35873-3 0  9993
2 60464  35.0006  62.0013 0007382 306.3543  53.6492 15.28332833 87004
STARLINK-32136          
1 61515U 24183G   26068.52245747 -.00000578  00000+0 -74144-5 0  9990
2 61515  53.1619 143.4555 0001110  94.1261 265.9867 15.30186561 79621
